NORAD_CAT_ID,OBJECT_NAME,OBJECT_TYPE,EPOCH,MEAN_MOTION,ECCENTRICITY,INCLINATION,RA_OF_ASC_NODE,ARG_OF_PERICENTER,MEAN_ANOMALY,BSTAR,MEAN_MOTION_DOT,MEAN_MOTION_DDOT,TLE_LINE0,TLE_LINE1,TLE_LINE2,SEMIMAJOR_AXIS,PERIOD,APOGEE,PERIGEE,DECAYED
51807.0,STARLINK-3606,PAYLOAD,2022-04-03 04:00:00,15.73150342,9.54e-05,53.2157,322.8286,86.8493,237.5704,2.9311e-05,3.488e-05,0.0,0 STARLINK-3606,1 51807U 22017AR  22093.16667824  .00003488  00000-0  29311-4 0  9992,2 51807  53.2157 322.8286 0000954  86.8493 237.5704 15.73150342  7032,6728.0369999999975,91.536,350.5440000000001,349.26,0.0
51807.0,STARLINK-3606,PAYLOAD,2022-04-03 12:00:00,15.73099342,0.0001154,53.2157,321.1771,101.3841,311.9045,0.00029425,0.00040699,0.0,0 STARLINK-3606,1 51807U 22017AR  22093.50001157  .00040699  00000-0  29425-3 0  9991,2 51807  53.2157 321.1771 0001154 101.3841 311.9045 15.73099342  7088,6728.182,91.539,350.824,349.271,0.0
51807.0,STARLINK-3606,PAYLOAD,2022-04-03 22:00:00,15.7309983,0.0001257,53.2154,319.1173,88.5642,165.7824,0.00033596,0.0004659,0.0,0 STARLINK-3606,1 51807U 22017AR  22093.91667824  .00046590  00000-0  33596-3 0  9995,2 51807  53.2154 319.1173 0001257  88.5642 165.7824 15.73099830  3692,6728.181,91.539,350.892,349.2,0.0
51807.0,STARLINK-3606,PAYLOAD,2022-04-04 04:00:00,15.7311647,0.0001118,53.2147,317.8802,90.2683,140.6941,0.0016954,0.00243473,0.0,0 STARLINK-3606,1 51807U 22017AR  22094.16667824  .00243473  00000-0  16954-2 0  9990,2 51807  53.2147 317.8802 0001118  90.2683 140.6941 15.73116470  7189,6728.1330000000025,91.538,350.751,349.246,0.0
51807.0,STARLINK-3606,PAYLOAD,2022-04-04 12:00:00,15.73266461,0.0001169,53.2149,316.2286,105.2177,214.6891,-0.00022859,-0.00032668,0.0,0 STARLINK-3606,1 51807U 22017AR  22094.50001157 -.00032668  00000-0 -22859-3 0  9995,2 51807  53.2149 316.2286 0001169 105.2177 214.6891 15.73266461  7240,6727.706,91.529,350.357,348.784,0.0
51807.0,STARLINK-3606,PAYLOAD,2022-04-04 14:00:01,15.73257029,0.0001167,53.2152,315.8161,106.0574,326.1018,-0.00015113,-0.00021827,0.0,0 STARLINK-3606,1 51807U 22017AR  22094.58334491 -.00021827  00000-0 -15113-3 0  9993,2 51807  53.2152 315.8161 0001167 106.0574 326.1018 15.73257029  3706,6727.733,91.53,350.3830000000001,348.81199999999984,0.0
51807.0,STARLINK-3606,PAYLOAD,2022-04-04 22:00:00,15.73231785,0.0001074,53.2153,314.1684,89.8178,71.36399999999998,0.00011167,0.00015101,0.0,0 STARLINK-3606,1 51807U 22017AR  22094.91667824  .00015101  00000-0  11167-3 0  9990,2 51807  53.2153 314.1684 0001074  89.8178  71.3640 15.73231785  3705,6727.805,91.531,350.392,348.94699999999995,0.0
51807.0,STARLINK-3606,PAYLOAD,2022-04-05 04:00:00,15.73269787,0.0001132,53.2152,312.931,88.2406,49.6564,-0.00030251,-0.00042985,0.0,0 STARLINK-3606,1 51807U 22017AR  22095.16667824 -.00042985  00000-0 -30251-3 0  9995,2 51807  53.2152 312.9310 0001132  88.2406  49.6564 15.73269787  7348,6727.696,91.529,350.3230000000001,348.8,0.0
51807.0,STARLINK-3606,PAYLOAD,2022-04-05 14:00:01,15.73252938,0.0001079,53.2154,310.867,102.7139,236.4802,-0.00060532,-0.00084909,0.0,0 STARLINK-3606,1 51807U 22017AR  22095.58335648 -.00084909  00000-0 -60532-3 0  9994,2 51807  53.2154 310.8670 0001079 102.7139 236.4802 15.73252938  3708,6727.744000000002,91.53,350.335,348.8830000000001,0.0
51807.0,STARLINK-3606,PAYLOAD,2022-04-05 22:00:00,15.73184178,8.909999999999997e-05,53.2151,309.2195,86.9399,341.1603,-0.00030822,-0.00043621,0.0,0 STARLINK-3606,1 51807U 22017AR  22095.91667824 -.00043621  00000-0 -30822-3 0  9990,2 51807  53.2151 309.2195 0000891  86.9399 341.1603 15.73184178  3704,6727.94,91.534,350.405,349.206,0.0
51807.0,STARLINK-3606,PAYLOAD,2022-04-06 12:00:00,15.731523800000002,9.41e-05,53.2147,306.3307,104.7742,28.8825,0.00068911,0.00097016,0.0,0 STARLINK-3606,1 51807U 22017AR  22096.50001157  .00097016  00000-0  68911-3 0  9992,2 51807  53.2147 306.3307 0000941 104.7742  28.8825 15.73152380  7551,6728.031,91.536,350.529,349.26300000000015,0.0
51807.0,STARLINK-3606,PAYLOAD,2022-04-06 14:00:01,15.73191776,9.68e-05,53.215,305.9184,105.804,140.0663,0.00030424,0.00042278,0.0,0 STARLINK-3606,1 51807U 22017AR  22096.58334491  .00042278  00000-0  30424-3 0  9998,2 51807  53.2150 305.9184 0000968 105.8040 140.0663 15.73191776  3707,6727.919,91.534,350.435,349.13199999999995,0.0
51807.0,STARLINK-3606,PAYLOAD,2022-04-06 20:00:01,15.73217131,0.0001026,53.215,304.6831,88.7763,133.7997,-0.00038061,-0.00053733,0.0,0 STARLINK-3606,1 51807U 22017AR  22096.83334491 -.00053733  00000-0 -38061-3 0  9991,2 51807  53.2150 304.6831 0001026  88.7763 133.7997 15.73217131  7605,6727.846,91.532,350.402,349.021,0.0
51807.0,STARLINK-3606,PAYLOAD,2022-04-06 22:00:00,15.73175337,0.0001061,53.2152,304.271,87.3878,247.4329,0.00019765,0.00027179,0.0,0 STARLINK-3606,1 51807U 22017AR  22096.91667824  .00027179  00000-0  19765-3 0  9992,2 51807  53.2152 304.2710 0001061  87.3878 247.4329 15.73175337  3700,6727.965,91.535,350.5440000000001,349.117,0.0
51807.0,STARLINK-3606,PAYLOAD,2022-04-07 04:00:00,15.73227711,9.17e-05,53.215,303.0333,84.6356,226.8749,9.3692e-05,0.00012564,0.0,0 STARLINK-3606,1 51807U 22017AR  22097.16667824  .00012564  00000-0  93692-4 0  9994,2 51807  53.2150 303.0333 0000917  84.6356 226.8749 15.73227711  7666,6727.816,91.532,350.298,349.064,0.0
51807.0,STARLINK-3606,PAYLOAD,2022-04-07 14:00:01,15.73225974,9.7e-05,53.2153,300.9698,96.6843,56.0317,-0.00050715,-0.00071271,0.0,0 STARLINK-3606,1 51807U 22017AR  22097.58334491 -.00071271  00000-0 -50715-3 0  9991,2 51807  53.2153 300.9698 0000970  96.6843  56.0317 15.73225974  3706,6727.821,91.532,350.339,349.034,0.0
51807.0,STARLINK-3606,PAYLOAD,2022-04-07 20:00:01,15.73173439,0.0001001,53.2149,299.7343,81.9059,47.5374,0.00033111,0.00046051,0.0,0 STARLINK-3606,1 51807U 22017AR  22097.83334491  .00046051  00000-0  33111-3 0  9996,2 51807  53.2149 299.7343 0001001  81.9059  47.5374 15.73173439  7761,6727.971,91.535,350.509,349.162,0.0
51807.0,STARLINK-3606,PAYLOAD,2022-04-07 22:00:00,15.73165503,0.0001072,53.215,299.3224,78.5163,163.1561,0.00061722,0.00086773,0.0,0 STARLINK-3606,1 51807U 22017AR  22097.91667824  .00086773  00000-0  61722-3 0  9998,2 51807  53.2150 299.3224 0001072  78.5163 163.1561 15.73165503  3686,6727.994000000002,91.535,350.58,349.13699999999994,0.0
51807.0,STARLINK-3606,PAYLOAD,2022-04-08 12:00:00,15.73293806,0.0001113,53.2153,296.4252,93.7651,213.5094,-0.0010527999999999,-0.00146413,0.0,0 STARLINK-3606,1 51807U 22017AR  22098.50001157 -.00146413  00000-0 -10528-2 0  9992,2 51807  53.2153 296.4252 0001113  93.7651 213.5094 15.73293806  7879,6727.628000000002,91.528,350.242,348.744,0.0
51807.0,STARLINK-3606,PAYLOAD,2022-04-08 14:00:03,15.7345289,0.0001278,53.2156,296.0113,88.6412,330.9762,-0.0043633,-0.00578879,0.0,0 STARLINK-3606,1 51807U 22017AR  22098.58336806 -.00578879  00000-0 -43633-2 0  9990,2 51807  53.2156 296.0113 0001278  88.6412 330.9762 15.73452890  3708,6727.174,91.518,349.899,348.18,0.0
51807.0,STARLINK-3606,PAYLOAD,2022-04-08 20:00:01,15.732268,0.000129,53.2148,294.7859,83.1887,313.0475,-0.00035153,-0.0004971999999999,0.0,0 STARLINK-3606,1 51807U 22017AR  22098.83334491 -.00049720  00000-0 -35153-3 0  9993,2 51807  53.2148 294.7859 0001290  83.1887 313.0475 15.73226800  7922,6727.819,91.532,350.552,348.816,0.0
51807.0,STARLINK-3606,PAYLOAD,2022-04-08 22:00:00,15.73205728,0.0001264999999999,53.215,294.3738,80.1609,68.3163,-7.6018e-05,-0.00011277,0.0,0 STARLINK-3606,1 51807U 22017AR  22098.91667824 -.00011277  00000-0 -76018-4 0  9993,2 51807  53.2150 294.3738 0001265  80.1609  68.3163 15.73205728  3676,6727.879,91.533,350.595,348.89300000000014,0.0
51807.0,STARLINK-3606,PAYLOAD,2022-04-09 14:00:01,15.73120609,0.0001073,53.215,291.0729,88.4669,237.856,0.00045244,0.00063139,0.0,0 STARLINK-3606,1 51807U 22017AR  22099.58334491  .00063139  00000-0  45244-3 0  9996,2 51807  53.2150 291.0729 0001073  88.4669 237.8560 15.73120609  3717,6728.121999999999,91.538,350.708,349.265,0.0
51807.0,STARLINK-3606,PAYLOAD,2022-04-09 20:00:01,15.73160603,9.79e-05,53.2146,289.8375,70.8936,232.0818,0.00098894,0.00140274,0.0,0 STARLINK-3606,1 51807U 22017AR  22099.83334491  .00140274  00000-0  98894-3 0  9999,2 51807  53.2146 289.8375 0000979  70.8936 232.0818 15.73160603  8086,6728.007,91.535,350.531,349.214,0.0
51807.0,STARLINK-3606,PAYLOAD,2022-04-09 22:00:00,15.73194623,9.73e-05,53.2146,289.4255,67.6931,347.5034,0.00079505,0.00112438,0.0,0 STARLINK-3606,1 51807U 22017AR  22099.91667824  .00112438  00000-0  79505-3 0  9996,2 51807  53.2146 289.4255 0000973  67.6931 347.5034 15.73194623  3707,6727.911,91.533,350.43,349.121,0.0
51807.0,STARLINK-3606,PAYLOAD,2022-04-10 04:00:00,15.73287594,9.04e-05,53.2139,288.1872,72.2236,319.6837,-0.0004275,-0.00060409,0.0,0 STARLINK-3606,1 51807U 22017AR  22100.16667824 -.00060409  00000-0 -42750-3 0  9990,2 51807  53.2139 288.1872 0000904  72.2236 319.6837 15.73287594  8137,6727.645,91.528,350.119,348.902,0.0
51807.0,STARLINK-3606,PAYLOAD,2022-04-10 12:00:00,15.73267609,0.0001049,53.2142,286.5363,86.6301,34.2678,1.8781e-05,2.024e-05,0.0,0 STARLINK-3606,1 51807U 22017AR  22100.50001157  .00002024  00000-0  18781-4 0  9994,2 51807  53.2142 286.5363 0001049  86.6301  34.2678 15.73267609  8184,6727.7019999999975,91.529,350.273,348.862,0.0
51807.0,STARLINK-3606,PAYLOAD,2022-04-10 14:00:01,15.73299495,0.000101,53.2143,286.1244,85.8625,147.2785,-0.00048914,-0.00068996,0.0,0 STARLINK-3606,1 51807U 22017AR  22100.58334491 -.00068996  00000-0 -48914-3 0  9994,2 51807  53.2143 286.1244 0001010  85.8625 147.2785 15.73299495  3702,6727.611999999999,91.527,350.156,348.797,0.0
51807.0,STARLINK-3606,PAYLOAD,2022-04-10 22:00:00,15.73229466,0.0001031,53.2144,284.4766,65.923,256.2598,2.3845e-05,2.732e-05,0.0,0 STARLINK-3606,1 51807U 22017AR  22100.91667824  .00002732  00000-0  23845-4 0  9991,2 51807  53.2144 284.4766 0001031  65.9230 256.2598 15.73229466  3712,6727.811,91.531,350.37,348.983,0.0
